<?xml version="1.0" encoding="UTF-8"?>
<kml xmlns="http://www.opengis.net/kml/2.2">
  <Document>
    <name>Sample Lines</name>
    <Placemark>
      <name>Test Line 1km</name>
      <description>0.01° longitude at equator ≈ 1111 m.</description>
      <LineString>
        <coordinates>
          0.0,0.0,0
          0.01,0.0,0
        </coordinates>
      </LineString>
    </Placemark>
    <Placemark>
      <name>Test Line 2km</name>
      <description>0.02° longitude at equator ≈ 2222 m.</description>
      <LineString>
        <coordinates>
          10.0,0.0,0
          10.02,0.0,0
        </coordinates>
      </LineString>
    </Placemark>
  </Document>
</kml>
