<?xml version="1.0" encoding="UTF-8"?>
<kml xmlns="http://www.opengis.net/kml/2.2">
  <Document>
    <name>Sample Polygon</name>
    <Placemark>
      <name>Test Square Polygon</name>
      <description>1° × 1° square near equator. Approximate area ≈ 12,300 km².</description>
      <Polygon>
        <outerBoundaryIs>
          <LinearRing>
            <coordinates>
              0.0,0.0,0
              1.0,0.0,0
              1.0,1.0,0
              0.0,1.0,0
              0.0,0.0,0
            </coordinates>
          </LinearRing>
        </outerBoundaryIs>
      </Polygon>
    </Placemark>
  </Document>
</kml>
